{
 "generated_at": "2026-07-16T07:22:15Z",
 "sources": [
  {
   "name": "CelesTrak",
   "url": "https://celestrak.org/NORAD/elements/",
   "license": "frei verfügbar; Attribution. Ursprünglich USSPACECOM/Space-Track."
  },
  {
   "name": "GCAT (J. McDowell, planet4589.org)",
   "url": "https://planet4589.org/space/gcat/",
   "license": "CC-BY 4.0"
  }
 ],
 "satellites": [
  {
   "norad": 36744,
   "name": "COMS 1",
   "intl": "2010-032A",
   "group": "weather",
   "gcat": {
    "class": null,
    "category": null,
    "owner": null,
    "state": null
   },
   "omm": {
    "OBJECT_NAME": "COMS 1",
    "OBJECT_ID": "2010-032A",
    "EPOCH": "2026-07-15T21:43:51.935808",
    "MEAN_MOTION": 0.99167762,
    "ECCENTRICITY": 0.00112151,
    "INCLINATION": 4.877,
    "RA_OF_ASC_NODE": 75.0084,
    "ARG_OF_PERICENTER": 14.9702,
    "MEAN_ANOMALY": 128.9717,
    "EPHEMERIS_TYPE": 0,
    "CLASSIFICATION_TYPE": "U",
    "NORAD_CAT_ID": 36744,
    "ELEMENT_SET_NO": 999,
    "REV_AT_EPOCH": 5137,
    "BSTAR": 0,
    "MEAN_MOTION_DOT": -0.00000254,
    "MEAN_MOTION_DDOT": 0
   }
  },
  {
   "norad": 31598,
   "name": "COSMO-SKYMED 1",
   "intl": "2007-023A",
   "group": "resource",
   "gcat": {
    "class": "D",
    "category": "IMG-R",
    "owner": "ASI",
    "state": "I"
   },
   "omm": {
    "OBJECT_NAME": "COSMO-SKYMED 1",
    "OBJECT_ID": "2007-023A",
    "EPOCH": "2026-07-15T22:34:21.488736",
    "MEAN_MOTION": 14.97221418,
    "ECCENTRICITY": 0.00014911,
    "INCLINATION": 97.8846,
    "RA_OF_ASC_NODE": 29.0397,
    "ARG_OF_PERICENTER": 103.0882,
    "MEAN_ANOMALY": 257.0506,
    "EPHEMERIS_TYPE": 0,
    "CLASSIFICATION_TYPE": "U",
    "NORAD_CAT_ID": 31598,
    "ELEMENT_SET_NO": 999,
    "REV_AT_EPOCH": 3409,
    "BSTAR": 0.00012600194,
    "MEAN_MOTION_DOT": 0.00001398,
    "MEAN_MOTION_DDOT": 0
   }
  },
  {
   "norad": 32376,
   "name": "COSMO-SKYMED 2",
   "intl": "2007-059A",
   "group": "resource",
   "gcat": {
    "class": "D",
    "category": "IMG-R",
    "owner": "ASI",
    "state": "I"
   },
   "omm": {
    "OBJECT_NAME": "COSMO-SKYMED 2",
    "OBJECT_ID": "2007-059A",
    "EPOCH": "2026-07-15T22:05:34.035648",
    "MEAN_MOTION": 14.82150789,
    "ECCENTRICITY": 0.00014581,
    "INCLINATION": 97.8894,
    "RA_OF_ASC_NODE": 20.1028,
    "ARG_OF_PERICENTER": 94.0682,
    "MEAN_ANOMALY": 266.0697,
    "EPHEMERIS_TYPE": 0,
    "CLASSIFICATION_TYPE": "U",
    "NORAD_CAT_ID": 32376,
    "ELEMENT_SET_NO": 999,
    "REV_AT_EPOCH": 626,
    "BSTAR": 0.000023823659,
    "MEAN_MOTION_DOT": 0.00000137,
    "MEAN_MOTION_DDOT": 0
   }
  },
  {
   "norad": 33412,
   "name": "COSMO-SKYMED 3",
   "intl": "2008-054A",
   "group": "resource",
   "gcat": {
    "class": null,
    "category": null,
    "owner": null,
    "state": null
   },
   "omm": {
    "OBJECT_NAME": "COSMO-SKYMED 3",
    "OBJECT_ID": "2008-054A",
    "EPOCH": "2026-07-15T21:25:56.286048",
    "MEAN_MOTION": 15.07118078,
    "ECCENTRICITY": 0.00158207,
    "INCLINATION": 97.8245,
    "RA_OF_ASC_NODE": 55.9385,
    "ARG_OF_PERICENTER": 164.3313,
    "MEAN_ANOMALY": 195.8407,
    "EPHEMERIS_TYPE": 0,
    "CLASSIFICATION_TYPE": "U",
    "NORAD_CAT_ID": 33412,
    "ELEMENT_SET_NO": 999,
    "REV_AT_EPOCH": 96126,
    "BSTAR": 0.00017589357,
    "MEAN_MOTION_DOT": 0.00002583,
    "MEAN_MOTION_DDOT": 0
   }
  },
  {
   "norad": 37216,
   "name": "COSMO-SKYMED 4",
   "intl": "2010-060A",
   "group": "resource",
   "gcat": {
    "class": "D",
    "category": "IMG-R",
    "owner": "ASI",
    "state": "I"
   },
   "omm": {
    "OBJECT_NAME": "COSMO-SKYMED 4",
    "OBJECT_ID": "2010-060A",
    "EPOCH": "2026-07-15T22:23:48.261408",
    "MEAN_MOTION": 14.82150178,
    "ECCENTRICITY": 0.0001488,
    "INCLINATION": 97.8885,
    "RA_OF_ASC_NODE": 20.1169,
    "ARG_OF_PERICENTER": 86.0713,
    "MEAN_ANOMALY": 274.067,
    "EPHEMERIS_TYPE": 0,
    "CLASSIFICATION_TYPE": "U",
    "NORAD_CAT_ID": 37216,
    "ELEMENT_SET_NO": 999,
    "REV_AT_EPOCH": 84882,
    "BSTAR": 0.000085596273,
    "MEAN_MOTION_DOT": 0.00000629,
    "MEAN_MOTION_DDOT": 0
   }
  },
  {
   "norad": 44873,
   "name": "CSG-1",
   "intl": "2019-092A",
   "group": "resource",
   "gcat": {
    "class": "D",
    "category": "IMG-R",
    "owner": "MDDI/ASI",
    "state": "I"
   },
   "omm": {
    "OBJECT_NAME": "CSG-1",
    "OBJECT_ID": "2019-092A",
    "EPOCH": "2026-07-15T22:42:03.658752",
    "MEAN_MOTION": 14.82157162,
    "ECCENTRICITY": 0.00014764,
    "INCLINATION": 97.8897,
    "RA_OF_ASC_NODE": 20.133,
    "ARG_OF_PERICENTER": 90.8267,
    "MEAN_ANOMALY": 269.3115,
    "EPHEMERIS_TYPE": 0,
    "CLASSIFICATION_TYPE": "U",
    "NORAD_CAT_ID": 44873,
    "ELEMENT_SET_NO": 999,
    "REV_AT_EPOCH": 35573,
    "BSTAR": 0.000028234541,
    "MEAN_MOTION_DOT": 0.00000173,
    "MEAN_MOTION_DDOT": 0
   }
  },
  {
   "norad": 51444,
   "name": "CSG-2",
   "intl": "2022-008A",
   "group": "resource",
   "gcat": {
    "class": "D",
    "category": "IMG-R",
    "owner": "MDDI/ASI",
    "state": "I"
   },
   "omm": {
    "OBJECT_NAME": "CSG-2",
    "OBJECT_ID": "2022-008A",
    "EPOCH": "2026-07-15T23:30:38.003328",
    "MEAN_MOTION": 14.82149469,
    "ECCENTRICITY": 0.00015131,
    "INCLINATION": 97.8884,
    "RA_OF_ASC_NODE": 20.1602,
    "ARG_OF_PERICENTER": 85.1424,
    "MEAN_ANOMALY": 274.9961,
    "EPHEMERIS_TYPE": 0,
    "CLASSIFICATION_TYPE": "U",
    "NORAD_CAT_ID": 51444,
    "ELEMENT_SET_NO": 999,
    "REV_AT_EPOCH": 24085,
    "BSTAR": -0.000007610218,
    "MEAN_MOTION_DOT": -0.00000113,
    "MEAN_MOTION_DDOT": 0
   }
  },
  {
   "norad": 67304,
   "name": "CSG-3",
   "intl": "2026-001A",
   "group": "resource",
   "gcat": {
    "class": "D",
    "category": "IMG-R",
    "owner": "MDDI/ASI",
    "state": "I"
   },
   "omm": {
    "OBJECT_NAME": "CSG-3",
    "OBJECT_ID": "2026-001A",
    "EPOCH": "2026-07-13T12:40:32.844288",
    "MEAN_MOTION": 14.82151371,
    "ECCENTRICITY": 0.00015181,
    "INCLINATION": 97.8894,
    "RA_OF_ASC_NODE": 17.7492,
    "ARG_OF_PERICENTER": 93.3222,
    "MEAN_ANOMALY": 266.8165,
    "EPHEMERIS_TYPE": 0,
    "CLASSIFICATION_TYPE": "U",
    "NORAD_CAT_ID": 67304,
    "ELEMENT_SET_NO": 999,
    "REV_AT_EPOCH": 2836,
    "BSTAR": 0.00002348529,
    "MEAN_MOTION_DOT": 0.00000135,
    "MEAN_MOTION_DDOT": 0
   }
  },
  {
   "norad": 41887,
   "name": "CYGFM01",
   "intl": "2016-078D",
   "group": "weather",
   "gcat": {
    "class": "C",
    "category": "EOSCI",
    "owner": "LARCN/SWRIB",
    "state": "US"
   },
   "omm": {
    "OBJECT_NAME": "CYGFM01",
    "OBJECT_ID": "2016-078D",
    "EPOCH": "2026-07-15T22:31:23.782080",
    "MEAN_MOTION": 15.58597321,
    "ECCENTRICITY": 0.00058424,
    "INCLINATION": 34.9397,
    "RA_OF_ASC_NODE": 70.8401,
    "ARG_OF_PERICENTER": 37.4839,
    "MEAN_ANOMALY": 322.6292,
    "EPHEMERIS_TYPE": 0,
    "CLASSIFICATION_TYPE": "U",
    "NORAD_CAT_ID": 41887,
    "ELEMENT_SET_NO": 999,
    "REV_AT_EPOCH": 53319,
    "BSTAR": 0.00020220605,
    "MEAN_MOTION_DOT": 0.00016015,
    "MEAN_MOTION_DDOT": 0
   }
  },
  {
   "norad": 41886,
   "name": "CYGFM02",
   "intl": "2016-078C",
   "group": "weather",
   "gcat": {
    "class": "C",
    "category": "EOSCI",
    "owner": "LARCN/SWRIB",
    "state": "US"
   },
   "omm": {
    "OBJECT_NAME": "CYGFM02",
    "OBJECT_ID": "2016-078C",
    "EPOCH": "2026-07-15T21:51:59.304384",
    "MEAN_MOTION": 15.66396547,
    "ECCENTRICITY": 0.00049061,
    "INCLINATION": 34.9406,
    "RA_OF_ASC_NODE": 30.0489,
    "ARG_OF_PERICENTER": 96.3405,
    "MEAN_ANOMALY": 263.7881,
    "EPHEMERIS_TYPE": 0,
    "CLASSIFICATION_TYPE": "U",
    "NORAD_CAT_ID": 41886,
    "ELEMENT_SET_NO": 999,
    "REV_AT_EPOCH": 53367,
    "BSTAR": 0.00023954332,
    "MEAN_MOTION_DOT": 0.00025803,
    "MEAN_MOTION_DDOT": 0
   }
  },
  {
   "norad": 41891,
   "name": "CYGFM03",
   "intl": "2016-078H",
   "group": "weather",
   "gcat": {
    "class": "C",
    "category": "EOSCI",
    "owner": "LARCN/SWRIB",
    "state": "US"
   },
   "omm": {
    "OBJECT_NAME": "CYGFM03",
    "OBJECT_ID": "2016-078H",
    "EPOCH": "2026-07-15T21:40:27.973920",
    "MEAN_MOTION": 15.61578855,
    "ECCENTRICITY": 0.00044419,
    "INCLINATION": 34.9403,
    "RA_OF_ASC_NODE": 40.1124,
    "ARG_OF_PERICENTER": 74.8092,
    "MEAN_ANOMALY": 285.3125,
    "EPHEMERIS_TYPE": 0,
    "CLASSIFICATION_TYPE": "U",
    "NORAD_CAT_ID": 41891,
    "ELEMENT_SET_NO": 999,
    "REV_AT_EPOCH": 53346,
    "BSTAR": 0.00022022956,
    "MEAN_MOTION_DOT": 0.00019569,
    "MEAN_MOTION_DDOT": 0
   }
  },
  {
   "norad": 41885,
   "name": "CYGFM04",
   "intl": "2016-078B",
   "group": "weather",
   "gcat": {
    "class": "C",
    "category": "EOSCI",
    "owner": "LARCN/SWRIB",
    "state": "US"
   },
   "omm": {
    "OBJECT_NAME": "CYGFM04",
    "OBJECT_ID": "2016-078B",
    "EPOCH": "2026-07-15T20:10:10.444224",
    "MEAN_MOTION": 15.63106576,
    "ECCENTRICITY": 0.00041442,
    "INCLINATION": 34.9324,
    "RA_OF_ASC_NODE": 36.8674,
    "ARG_OF_PERICENTER": 92.5191,
    "MEAN_ANOMALY": 267.6009,
    "EPHEMERIS_TYPE": 0,
    "CLASSIFICATION_TYPE": "U",
    "NORAD_CAT_ID": 41885,
    "ELEMENT_SET_NO": 999,
    "REV_AT_EPOCH": 53348,
    "BSTAR": 0.00022046259,
    "MEAN_MOTION_DOT": 0.00020801,
    "MEAN_MOTION_DDOT": 0
   }
  },
  {
   "norad": 41884,
   "name": "CYGFM05",
   "intl": "2016-078A",
   "group": "weather",
   "gcat": {
    "class": "C",
    "category": "EOSCI",
    "owner": "LARCN/SWRIB",
    "state": "US"
   },
   "omm": {
    "OBJECT_NAME": "CYGFM05",
    "OBJECT_ID": "2016-078A",
    "EPOCH": "2026-07-15T21:34:00.761088",
    "MEAN_MOTION": 15.57876423,
    "ECCENTRICITY": 0.00058165,
    "INCLINATION": 34.9569,
    "RA_OF_ASC_NODE": 70.2864,
    "ARG_OF_PERICENTER": 44.2389,
    "MEAN_ANOMALY": 315.88,
    "EPHEMERIS_TYPE": 0,
    "CLASSIFICATION_TYPE": "U",
    "NORAD_CAT_ID": 41884,
    "ELEMENT_SET_NO": 999,
    "REV_AT_EPOCH": 53323,
    "BSTAR": 0.00019955025,
    "MEAN_MOTION_DOT": 0.00015375,
    "MEAN_MOTION_DDOT": 0
   }
  }
 ]
}
